1 43549U 98067NX  19075.45040415  .00011116  00000-0  14589-3 0  9990
2 43549  51.6375  96.9143 0005485 134.2628 225.8815 15.59069909 37929
1 43550U 98067NY  19076.54085191  .00031679  00000-0  36253-3 0  9991
2 43550  51.6362  89.1794 0003908 142.4340 217.6927 15.61838666 38586
1 43551U 98067NZ  19076.50998732  .00020958  00000-0  25850-3 0  9991
2 43551  51.6380  90.4938 0005723 144.2040 215.9338 15.60124996 38519
1 43552U 98067PA  19076.11128373  .00013109  00000-0  16889-3 0  9997
2 43552  51.6389  93.0886 0006127 143.9294 216.2113 15.59374448 38406
1 43553U 98067PB  19076.22645740  .00013497  00000-0  17849-3 0  9999
2 43553  51.6399  93.1197 0006368 144.8481 215.2933 15.58645599 38461
1 43554U 98067PC  19076.49555435  .00021700  00000-0  26557-3 0  9992
2 43554  51.6381  90.3985 0005814 142.8793 217.2603 15.60305357 38055
1 43555U 18056J   19076.17409241  .00035224  00000-0  27407-2 0  9991
2 43555  98.1217 158.5829 0034093 179.1767 180.9873 15.00697872 37334
1 43556U 18046C   19076.55286385  .00000750  00000-0  39460-4 0  9995
2 43556  51.6421 143.3280 0009010  96.5313 263.6693 15.28397997 37311
1 43557U 18046D   19075.57880268 +.00000390 +00000-0 +26712-4 0  9993
2 43557 051.6427 148.0729 0009031 093.4854 266.7158 15.28307814037114
1 43558U 18046E   19076.18063768  .00003656  00000-0  14088-3 0  9990
2 43558  51.6422 144.6076 0008235  97.7945 262.3970 15.28873455 37258
1 43559U 18046F   19075.65520947  .00002816  00000-0  11124-3 0  9994
2 43559  51.6422 147.1007 0008285  95.8448 264.3476 15.28935838 36956
1 43560U 18046G   19075.79114192 +.00002755 +00000-0 +10929-3 0  9996
2 43560 051.6419 146.5016 0008535 109.7407 250.4495 15.28876403037191
1 43561U 18046H   19075.78786137  .00002131  00000-0  87371-4 0  9994
2 43561  51.6420 146.4813 0008494 110.2699 249.9194 15.28894299 36755
1 43562U 18059A   19076.49592073 -.00000300  00000-0  00000+0 0  9998
2 43562   0.0128 156.7537 0000340  90.3012  43.2500  1.00269677  2609
1 43563U 18059B   19075.96609884  .00017062  00000-0  84292-3 0  9990
2 43563  27.0886   7.5579 5696655 168.8343 213.0506  4.57038533 10817
1 43564U 18060A   19074.29025577 -.00000018 +00000-0 +00000-0 0  9995
2 43564 056.4968 053.6870 0006272 284.4403 075.4908 01.70475832003972
1 43565U 18060B   19072.75043075 -.00000017 +00000-0 +00000-0 0  9997
2 43565 056.4979 053.7281 0006232 290.3714 069.5621 01.70475927003992
1 43566U 18060C   19075.90321694 -.00000023  00000-0  00000+0 0  9990
2 43566  56.5008  53.6427 0005769 288.3669  71.5670  1.70475656  4029
1 43567U 18060D   19074.36333878 -.00000018  00000-0  00000+0 0  9991
2 43567  56.4983  53.6863 0005938 289.0195  70.9167  1.70475622  3975
1 43568U 18060E   19075.65913997 -.00000022  00000-0  00000+0 0  9996
2 43568  56.4258  53.3767 0003792 244.5716 115.3872  1.73226362  4080
1 43569U 18061A   19076.57762626  .00000068  00000-0  17351-4 0  9992
2 43569  86.3924  83.6117 0002339  96.9531 263.1931 14.34217819 33749
1 43570U 18061B   19076.53321553  .00000072  00000-0  18556-4 0  9993
2 43570  86.3923  83.6173 0002011  86.2703 273.8723 14.34216587 33762
1 43571U 18061C   19076.57128265  .00000073  00000-0  19031-4 0  9993
2 43571  86.3923  83.6084 0001948  96.2106 263.9312 14.34217811 33743
1 43572U 18061D   19076.59664742  .00000065  00000-0  15978-4 0  9998
2 43572  86.3924  83.5958 0001977  93.9875 266.1547 14.34216679 33761
1 43573U 18061E   19076.55858879  .00000031  00000-0  39520-5 0  9994
2 43573  86.3921  83.6067 0002471  72.0687 288.0779 14.34216195 33730
1 43574U 18061F   19076.53956215  .00000064  00000-0  15775-4 0  9997
2 43574  86.3924  83.6230 0002414  98.0889 262.0581 14.34216692 33774
1 43575U 18061G   19076.52053944  .00000064  00000-0  15824-4 0  9999
2 43575  86.3922  83.6264 0001514 103.4404 256.6961 14.34218249 33742
1 43576U 18061H   19076.56493799  .00000062  00000-0  15031-4 0  9998
2 43576  86.3923  83.6122 0001849  82.0423 278.0983 14.34216077 33739
1 43577U 18061J   19076.54592846  .00000068  00000-0  17066-4 0  9996
2 43577  86.3923  83.6202 0002176  96.8282 263.3162 14.34217049 33780
1 43578U 18061K   19076.51418867  .00000065  00000-0  16042-4 0  9994
2 43578  86.3922  83.6258 0002290  94.5374 265.6083 14.34216822 33746
1 43579U 10007AF  19075.97113375  .00024148  00000-0  36742-1 0  9996
2 43579  64.9873  70.1698 5730501  33.5274 352.2422  4.28968986 11779
1 43581U 18062A   19076.08445174  .00000050  00000-0  00000+0 0  9998
2 43581  54.8346 272.8912 0001376 274.7690 280.7458  1.86231686  4296
1 43582U 18062B   19076.46991249  .00000046  00000-0  00000+0 0  9995
2 43582  54.8335 272.8658 0004878   8.0676 176.3128  1.86232081  4300
1 43583U 18062C   19075.60027091  .00651284 -27523-5  22064-3 0  9995
2 43583  54.9213 143.7153 5403220 248.0104  47.8003  5.16844686 10593
1 43584U 18062D   19075.56003793  .00000038  00000-0  00000+0 0  9996
2 43584  54.8901 273.5599 0030794   6.5000 353.5641  1.78870286  4128
1 43585U 18063A   19076.50935558  .00104882  48906-5  34379-3 0  9990
2 43585  97.3932 155.8429 0227830  57.7812  65.4298 15.60093571 35410
1 43587U 18064A   19076.08149426 -.00000362  00000-0  00000+0 0  9994
2 43587   0.0142 173.0541 0001436 172.5939 326.0375  1.00272224  2296
1 43588U 18064B   19075.68529294  .00741404  67847-6  72014-3 0  9999
2 43588  26.9728  72.7284 5216493  73.6795 335.8526  5.46209763  8014
1 43589U 98067PD  19076.43359274  .00019298  00000-0  24672-3 0  9992
2 43589  51.6365  92.2180 0005214 151.6116 208.5162 15.59238735 34180
1 43590U 98067PE  19076.23767563  .00019105  00000-0  24416-3 0  9999
2 43590  51.6368  93.1618 0005394 152.1860 207.9422 15.59254876 34087
1 43591U 98067PF  19076.29566162  .00019222  00000-0  24511-3 0  9994
2 43591  51.6381  92.8068 0005450 152.4675 207.6607 15.59309532 34091
1 43595U 98067PG  19076.49545637  .00017853  00000-0  23375-3 0  9999
2 43595  51.6366  92.6312 0004053 104.8862 255.2579 15.58669737 33298
1 43596U 98067PH  19076.19555524  .00018556  00000-0  24419-3 0  9994
2 43596  51.6376  94.4007 0004616 106.4330 253.7170 15.58501503 33245
1 43597U 98067PJ  19076.52254727  .00021885  00000-0  27713-3 0  9992
2 43597  51.6365  92.0419 0003809 115.9372 244.2014 15.59407742 33309
1 43598U 98067PK  19076.52582951  .00023665  00000-0  29847-3 0  9994
2 43598  51.6374  92.0736 0004118 114.8576 245.2846 15.59460770 33304
1 43599U 98067PL  19059.51015106  .08097588  12120-4  27277-2 0  9995
2 43599  51.6176 160.5088 0011033 354.0931   5.9957 16.24719198 30588
1 43600U 18066A   19076.01667727 -.00000137  00000-0  00000+0 0  9994
2 43600  96.7211  84.2177 0004121 132.3810 227.8341 15.86806043 32672
1 43601U 16049F   19075.93261113 +.00000429 +00000-0 +90662-4 0  9994
2 43601 098.4642 122.0311 0130735 269.9647 088.6571 14.59755918243548
1 43602U 18067A   19075.62679811 +.00000055 +00000-0 +00000-0 0  9999
2 43602 054.8999 271.4136 0005793 353.4653 029.3424 01.86231622003781
1 43603U 18067B   19075.76514328  .00000053  00000-0  00000+0 0  9993
2 43603  54.8941 271.3790 0003224 348.6350  37.6012  1.86231543  3801
1 43604U 18067C   19074.47120603  .01002304 -77723-5  28208-3 0  9998
2 43604  54.9270 155.7121 5296149 239.7974  57.6982  5.35327756  9419
1 43605U 18067D   19075.72367600  .00000038  00000-0  00000+0 0  9993
2 43605  54.6377 271.6992 0037797   3.5717 356.4760  1.78799851  3632
1 43606U 10007AH  19076.02563721  .00000440  00000-0  34835-3 0  9990
2 43606  65.4011  67.9793 5775107  28.1783 353.6599  4.25822034 12014
1 43607U 10007AJ  19075.96546561  .00017756  00000-0  38571-2 0  9994
2 43607  65.4117  55.9681 5667100  23.7855 354.4397  4.53800457 12289
1 43608U 10007AK  19074.10607752 +.00000021 +00000-0 -44504-4 0  9993
2 43608 065.7551 080.1508 5594455 026.1102 353.7673 04.20080798010882
1 43609U 18068A   19076.48574042 -.00000024  00000-0  69977-5 0  9992
2 43609  98.5776 151.6278 0013821  58.8971 301.3568 14.34144788 27435
1 43610U 18068B   19075.81034650 +.00000007 +00000-0 +13306-4 0  9990
2 43610 098.5759 157.0413 0090371 163.2125 197.2086 14.53940938027705
1 43611U 18069A   19075.99632726 -.00000312  00000-0  00000+0 0  9991
2 43611   0.0222 112.3897 0003991 240.6929 317.8590  1.00270259  2043
1 43612U 18069B   19074.25917893  .00008522  00000-0  68748-3 0  9998
2 43612  27.0462  90.3021 5725589  86.1661 333.9416  4.50361610  8365
1 43613U 18070A   19076.20569099  .00000330  00000-0  11758-4 0  9998
2 43613  91.9991 297.9750 0002447  81.7439 278.4088 15.28276301 27905
1 43614U 18070B   19076.18767305  .00003252  00000-0  89648-4 0  9995
2 43614  93.0355 325.0690 0014241 313.9969  46.0109 15.37086960 28041
1 43615U 18070C   19076.18950642  .00003058  00000-0  84461-4 0  9996
2 43615  93.0359 325.0706 0014270 313.5597  46.4470 15.37037756 28043
1 43616U 18070D   19076.16369720  .00003772  00000-0  10271-3 0  9996
2 43616  93.0320 324.9920 0015284 317.1070  42.8991 15.37446677 28044
1 43617U 18070E   19076.41997550  .00004270  00000-0  11616-3 0  9991
2 43617  93.0372 325.2406 0014164 312.8659  47.1404 15.37484851 28083
1 43618U 18071A   19076.46612389  .00000583  00000-0  58753-4 0  9999
2 43618  97.8052 330.6007 0014300   9.7421 350.4088 14.94902805 27150
1 43619U 18071B   19076.38911728  .00000183  00000-0  22124-4 0  9999
2 43619  97.8057 330.4193 0007055  18.6245 341.5239 14.94898746 27137
1 43620U 18071C   19076.22775991  .00000019  00000-0  76467-5 0  9992
2 43620  97.6926 326.5302 0031779 352.0747   7.9960 14.90801443 27040
1 43621U 98067PM  19061.23898920  .23242489  12305-4  32983-2 0  9990
2 43621  51.6125 153.4152 0004233 358.3622   3.0151 16.34053878 26115
1 43622U 18072A   19075.60036280 -.00000004  00000-0  00000+0 0  9996
2 43622  55.0073 151.3720 0006733 277.4788  28.4490  1.86231633  3306
1 43623U 18072B   19075.70162539 -.00000004  00000-0  00000+0 0  9995
2 43623  55.0090 151.3597 0005236 302.2056 161.7332  1.86231668  3315
1 43624U 18072C   19075.33610472  .00011206  00000-0  42167-3 0  9998
2 43624  55.0488  57.7433 5765683 226.7707  67.9544  4.47239107  7910
